{
  "norad_id": 66827,
  "name": "STARLINK-35959",
  "history": [
    {
      "epoch": "2026-03-28T20:11:15.795456Z",
      "apogee_km": 573.712824319261,
      "perigee_km": 570.3367137383375,
      "latitude_deg": -1.5905176868522765e-05,
      "longitude_deg": 157.1298636997422,
      "height_km": 574.3518034355787,
      "semi_major_axis_km": 6950.1617690287985,
      "eccentricity": 0.00024288,
      "inclination_deg": 70.0005,
      "raan_deg": 286.2015,
      "arg_perigee_deg": 273.3915,
      "mean_anomaly_deg": 86.6966,
      "mean_motion_rev_day": 14.98340064
    },
    {
      "epoch": "2026-03-28T23:23:31.976160Z",
      "apogee_km": 573.654541806939,
      "perigee_km": 570.4088130345835,
      "latitude_deg": -3.276279616342232e-06,
      "longitude_deg": 108.59504470049916,
      "height_km": 574.3491291161976,
      "semi_major_axis_km": 6950.168677420761,
      "eccentricity": 0.0002335,
      "inclination_deg": 70.0006,
      "raan_deg": 285.8657,
      "arg_perigee_deg": 273.8634,
      "mean_anomaly_deg": 86.2258,
      "mean_motion_rev_day": 14.9833783
    },
    {
      "epoch": "2026-03-30T04:00:01.999584Z",
      "apogee_km": 573.6069315144587,
      "perigee_km": 570.3566389633534,
      "latitude_deg": -48.033573640020684,
      "longitude_deg": 11.554613335159006,
      "height_km": 588.6499347679897,
      "semi_major_axis_km": 6950.118785238906,
      "eccentricity": 0.00023383,
      "inclination_deg": 69.9997,
      "raan_deg": 282.8603,
      "arg_perigee_deg": 273.897,
      "mean_anomaly_deg": 34.0596,
      "mean_motion_rev_day": 14.98353964
    },
    {
      "epoch": "2026-03-30T14:00:03.000384Z",
      "apogee_km": 573.6609331797799,
      "perigee_km": 570.3568338267623,
      "latitude_deg": 32.586598910906154,
      "longitude_deg": -102.79774953503326,
      "height_km": 576.6960794129278,
      "semi_major_axis_km": 6950.145883503271,
      "eccentricity": 0.0002377,
      "inclination_deg": 70.0001,
      "raan_deg": 281.8096,
      "arg_perigee_deg": 266.9549,
      "mean_anomaly_deg": 127.9109,
      "mean_motion_rev_day": 14.98345201
    },
    {
      "epoch": "2026-03-30T22:00:00.999936Z",
      "apogee_km": 573.7586944747918,
      "perigee_km": 570.4463493234462,
      "latitude_deg": 30.173092422258236,
      "longitude_deg": 134.81210411448856,
      "height_km": 576.1172351471071,
      "semi_major_axis_km": 6950.239521899119,
      "eccentricity": 0.00023829,
      "inclination_deg": 70.0,
      "raan_deg": 280.969,
      "arg_perigee_deg": 275.1602,
      "mean_anomaly_deg": 117.0797,
      "mean_motion_rev_day": 14.98314921
    },
    {
      "epoch": "2026-03-31T18:41:10.658112Z",
      "apogee_km": 573.6891854199148,
      "perigee_km": 570.3892417537027,
      "latitude_deg": 1.9667775055230746e-06,
      "longitude_deg": 169.35040495150162,
      "height_km": 574.4683529442931,
      "semi_major_axis_km": 6950.176213586808,
      "eccentricity": 0.0002374,
      "inclination_deg": 70.0,
      "raan_deg": 278.7959,
      "arg_perigee_deg": 269.9193,
      "mean_anomaly_deg": 90.1694,
      "mean_motion_rev_day": 14.98335393
    },
    {
      "epoch": "2026-04-01T18:43:11.610336Z",
      "apogee_km": 573.676358098046,
      "perigee_km": 570.4083837578346,
      "latitude_deg": 2.2733161761246983e-05,
      "longitude_deg": 165.33402135023744,
      "height_km": 574.5206659179167,
      "semi_major_axis_km": 6950.17937092794,
      "eccentricity": 0.0002351,
      "inclination_deg": 70.0,
      "raan_deg": 276.2705,
      "arg_perigee_deg": 268.1938,
      "mean_anomaly_deg": 91.8952,
      "mean_motion_rev_day": 14.98334372
    },
    {
      "epoch": "2026-04-02T18:45:12.463200Z",
      "apogee_km": 573.6856257921472,
      "perigee_km": 570.3773455929577,
      "latitude_deg": -3.824653421472555e-05,
      "longitude_deg": 161.31832283634142,
      "height_km": 574.5029832449707,
      "semi_major_axis_km": 6950.168485692552,
      "eccentricity": 0.000238,
      "inclination_deg": 70.0003,
      "raan_deg": 273.7454,
      "arg_perigee_deg": 268.4535,
      "mean_anomaly_deg": 91.6351,
      "mean_motion_rev_day": 14.98337892
    },
    {
      "epoch": "2026-04-02T21:57:28.525536Z",
      "apogee_km": 573.708351977949,
      "perigee_km": 570.3304369671077,
      "latitude_deg": 3.641135163887888e-05,
      "longitude_deg": 112.7832209850668,
      "height_km": 574.4767096945076,
      "semi_major_axis_km": 6950.1563944725285,
      "eccentricity": 0.00024301,
      "inclination_deg": 70.0013,
      "raan_deg": 273.4088,
      "arg_perigee_deg": 268.9707,
      "mean_anomaly_deg": 91.1174,
      "mean_motion_rev_day": 14.98341802
    },
    {
      "epoch": "2026-04-03T20:23:21.288480Z",
      "apogee_km": 573.9466397772567,
      "perigee_km": 570.0934727052763,
      "latitude_deg": -1.5195215379487246e-05,
      "longitude_deg": 133.035034997944,
      "height_km": 574.5798409642904,
      "semi_major_axis_km": 6950.157056241266,
      "eccentricity": 0.0002772,
      "inclination_deg": 70.0004,
      "raan_deg": 271.0517,
      "arg_perigee_deg": 266.0563,
      "mean_anomaly_deg": 94.0279,
      "mean_motion_rev_day": 14.98341588
    },
    {
      "epoch": "2026-04-04T20:25:22.175040Z",
      "apogee_km": 573.8006964057158,
      "perigee_km": 570.2630604465967,
      "latitude_deg": -2.925047635191361e-05,
      "longitude_deg": 129.01991104885474,
      "height_km": 574.5965303880416,
      "semi_major_axis_km": 6950.168878426156,
      "eccentricity": 0.0002545,
      "inclination_deg": 70.0012,
      "raan_deg": 268.5273,
      "arg_perigee_deg": 265.5399,
      "mean_anomaly_deg": 94.5469,
      "mean_motion_rev_day": 14.98337765
    },
    {
      "epoch": "2026-04-05T14:02:51.056160Z",
      "apogee_km": 573.8086850414647,
      "perigee_km": 570.3102341515623,
      "latitude_deg": 1.0093820997787375e-06,
      "longitude_deg": -137.92573745393616,
      "height_km": 574.5723979979186,
      "semi_major_axis_km": 6950.196459596513,
      "eccentricity": 0.00025168,
      "inclination_deg": 70.0013,
      "raan_deg": 266.6758,
      "arg_perigee_deg": 267.186,
      "mean_anomaly_deg": 92.9011,
      "mean_motion_rev_day": 14.98328846
    },
    {
      "epoch": "2026-04-05T17:15:07.204896Z",
      "apogee_km": 573.8205104162635,
      "perigee_km": 570.2995406031396,
      "latitude_deg": 7.388289981377818e-05,
      "longitude_deg": 173.53879872987076,
      "height_km": 574.5828758157121,
      "semi_major_axis_km": 6950.197025509701,
      "eccentricity": 0.0002533,
      "inclination_deg": 70.0015,
      "raan_deg": 266.3392,
      "arg_perigee_deg": 266.8818,
      "mean_anomaly_deg": 93.2052,
      "mean_motion_rev_day": 14.98328663
    },
    {
      "epoch": "2026-04-05T22:03:31.525632Z",
      "apogee_km": 573.7373660506692,
      "perigee_km": 570.3599928216045,
      "latitude_deg": 2.3083939387799615e-06,
      "longitude_deg": 100.73492961998839,
      "height_km": 574.5599194026437,
      "semi_major_axis_km": 6950.1856794361365,
      "eccentricity": 0.00024297,
      "inclination_deg": 70.002,
      "raan_deg": 265.8341,
      "arg_perigee_deg": 267.1414,
      "mean_anomaly_deg": 92.9467,
      "mean_motion_rev_day": 14.98332332
    },
    {
      "epoch": "2026-04-07T20:31:25.246848Z",
      "apogee_km": 574.0295528094939,
      "perigee_km": 570.035985260206,
      "latitude_deg": -7.753919961732188e-05,
      "longitude_deg": 116.97061062255864,
      "height_km": 574.4416488884938,
      "semi_major_axis_km": 6950.169769034849,
      "eccentricity": 0.0002873,
      "inclination_deg": 70.0016,
      "raan_deg": 260.9519,
      "arg_perigee_deg": 270.533,
      "mean_anomaly_deg": 89.5499,
      "mean_motion_rev_day": 14.98337477
    },
    {
      "epoch": "2026-04-08T14:08:54.030336Z",
      "apogee_km": 573.8905091084607,
      "perigee_km": 570.2039923781804,
      "latitude_deg": 7.437358991938523e-05,
      "longitude_deg": -149.97428698997726,
      "height_km": 574.5166635351362,
      "semi_major_axis_km": 6950.18425074332,
      "eccentricity": 0.00026521,
      "inclination_deg": 70.002,
      "raan_deg": 259.1007,
      "arg_perigee_deg": 268.6892,
      "mean_anomaly_deg": 91.3964,
      "mean_motion_rev_day": 14.98332794
    },
    {
      "epoch": "2026-04-09T20:35:27.107232Z",
      "apogee_km": 573.940810670435,
      "perigee_km": 570.1168294362415,
      "latitude_deg": 1.9528467088222795e-05,
      "longitude_deg": 108.93993906898193,
      "height_km": 574.4615732352576,
      "semi_major_axis_km": 6950.1658200533375,
      "eccentricity": 0.0002751,
      "inclination_deg": 70.0016,
      "raan_deg": 255.903,
      "arg_perigee_deg": 269.8374,
      "mean_anomaly_deg": 90.247,
      "mean_motion_rev_day": 14.98338754
    },
    {
      "epoch": "2026-04-10T12:36:47.646144Z",
      "apogee_km": 573.9275506378781,
      "perigee_km": 570.1313697173282,
      "latitude_deg": -7.931872430393486e-06,
      "longitude_deg": -133.73686677048903,
      "height_km": 574.4456646396122,
      "semi_major_axis_km": 6950.166460177603,
      "eccentricity": 0.0002731,
      "inclination_deg": 70.0014,
      "raan_deg": 254.2198,
      "arg_perigee_deg": 270.3347,
      "mean_anomaly_deg": 89.7499,
      "mean_motion_rev_day": 14.98338547
    },
    {
      "epoch": "2026-04-11T20:39:28.869120Z",
      "apogee_km": 573.9653129075868,
      "perigee_km": 570.1288113053042,
      "latitude_deg": -4.011502145535857e-06,
      "longitude_deg": 100.9089372547985,
      "height_km": 574.553621899643,
      "semi_major_axis_km": 6950.184062106446,
      "eccentricity": 0.000276,
      "inclination_deg": 70.0012,
      "raan_deg": 250.8534,
      "arg_perigee_deg": 267.6323,
      "mean_anomaly_deg": 92.452,
      "mean_motion_rev_day": 14.98332855
    }
  ]
}